[{"_id":"d02d6099-c898-4e97-9a6f-54179b6c5b9d","id":1,"street1":"2","street2":"Ryan","city":"Petaluma","state":"CA","zipCode":"94975"},
{"_id":"10122931-ddaf-4979-b2eb-d2c0558dc623","id":2,"street1":"3","street2":"Straubel","city":"Hollywood","state":"FL","zipCode":"33023"},
{"_id":"d6823399-1cd4-42e5-a1ed-d9751703b010","id":3,"street1":"51401","street2":"Upham","city":"Louisville","state":"KY","zipCode":"40225"},
{"_id":"59803ef2-22e2-4f21-97d2-fe5524f4d2e8","id":4,"street1":"4532","street2":"Pankratz","city":"Saint Paul","state":"MN","zipCode":"55108"},
{"_id":"0ff438d0-745c-4a61-8cbe-b1c165e77fd9","id":5,"street1":"39175","street2":"Grayhawk","city":"Lafayette","state":"LA","zipCode":"70593"},
{"_id":"0f3425af-2f14-4ae4-9766-ab2c24fe64f7","id":6,"street1":"4","street2":"Di Loreto","city":"Spring","state":"TX","zipCode":"77388"},
{"_id":"7b586b39-d730-4c8c-aec9-6189fdee8055","id":7,"street1":"33679","street2":"Northland","city":"Alexandria","state":"VA","zipCode":"22313"},
{"_id":"c8308056-c4b5-4ae2-b02f-82a68c0bac01","id":8,"street1":"8368","street2":"North","city":"Norfolk","state":"VA","zipCode":"23514"},
{"_id":"390c3845-3908-4292-971f-5a45d3b7ad0c","id":9,"street1":"395","street2":"Towne","city":"Washington","state":"DC","zipCode":"20215"},
{"_id":"dd35e749-4dde-4ed6-9693-445fdceb88ea","id":10,"street1":"7887","street2":"Oxford","city":"New Orleans","state":"LA","zipCode":"70142"},
{"_id":"c6a77a97-767e-411e-b3dd-cafaa81c0420","id":11,"street1":"4","street2":"Mcguire","city":"Decatur","state":"GA","zipCode":"30033"},
{"_id":"2faea78a-188e-486a-8f9c-6eec256546e7","id":12,"street1":"2","street2":"Milwaukee","city":"Los Angeles","state":"CA","zipCode":"90050"},
{"_id":"a97ef4d2-e268-4b13-8adb-e69caf2facc9","id":13,"street1":"839","street2":"Dawn","city":"Philadelphia","state":"PA","zipCode":"19196"},
{"_id":"cad8cfb6-259b-4e0e-b7b3-92d04f101e6c","id":14,"street1":"308","street2":"Nova","city":"Washington","state":"DC","zipCode":"20580"},
{"_id":"ed6d8273-234d-48a1-b08f-b7bbc35a9cc1","id":15,"street1":"17627","street2":"Hudson","city":"Silver Spring","state":"MD","zipCode":"20904"},
{"_id":"b9ae7992-3893-4624-9ed9-7839aed4dd4e","id":16,"street1":"02","street2":"John Wall","city":"Anchorage","state":"AK","zipCode":"99522"},
{"_id":"e2d08813-9496-4da0-aa13-080373b6e8e2","id":17,"street1":"55","street2":"Fulton","city":"Saginaw","state":"MI","zipCode":"48609"},
{"_id":"a49994bd-edfb-4f36-b58f-5daee109d72e","id":18,"street1":"033","street2":"High Crossing","city":"Utica","state":"NY","zipCode":"13505"},
{"_id":"24bcb535-03e8-4fdc-8b86-7cda3c3bae2a","id":19,"street1":"37731","street2":"Armistice","city":"Pinellas Park","state":"FL","zipCode":"34665"},
{"_id":"eb621ffb-6343-461b-a6ce-df4457ba2059","id":20,"street1":"597","street2":"Westend","city":"Shreveport","state":"LA","zipCode":"71166"},
{"_id":"03e98078-5034-4f2d-9cad-f334fda56f56","id":21,"street1":"40990","street2":"David","city":"Baltimore","state":"MD","zipCode":"21216"},
{"_id":"82ca4cd6-627e-4fa1-87e8-0505c66dfb12","id":22,"street1":"8791","street2":"Manitowish","city":"Salem","state":"OR","zipCode":"97306"},
{"_id":"7b407434-c6c8-4671-9aea-12e89f95a04c","id":23,"street1":"80865","street2":"Brown","city":"Houston","state":"TX","zipCode":"77090"},
{"_id":"ad93ca36-f72c-4b5d-97fb-25add37b1b01","id":24,"street1":"2","street2":"Russell","city":"Washington","state":"DC","zipCode":"20078"},
{"_id":"f478484c-fc2a-42a6-baa0-8d58fbc3150d","id":25,"street1":"8","street2":"East","city":"Tampa","state":"FL","zipCode":"33686"},
{"_id":"4e76e0b4-33b7-44a9-9a55-a3a4d12ebca9","id":26,"street1":"55","street2":"5th","city":"Miami","state":"FL","zipCode":"33175"},
{"_id":"d262b657-af5b-4068-a9f5-eab928ffa594","id":27,"street1":"15","street2":"Iowa","city":"Birmingham","state":"AL","zipCode":"35285"},
{"_id":"d2029f16-3e75-4ef2-97b5-74155f5a05a5","id":28,"street1":"597","street2":"Ryan","city":"Los Angeles","state":"CA","zipCode":"90101"},
{"_id":"72b67be9-8bd6-499c-88ec-e749bb3a178b","id":29,"street1":"59299","street2":"Washington","city":"Portland","state":"OR","zipCode":"97271"},
{"_id":"507516af-abb6-443b-afa1-c2821850d1df","id":30,"street1":"540","street2":"Fuller","city":"Brooklyn","state":"NY","zipCode":"11205"}]